{
  "type": "FeatureCollection",
  "features": [
    {
      "type": "Feature",
      "properties": {
        "norad_id": 34079,
        "name": "IRIDIUM 33 DEB",
        "group": "iridium-33-debris",
        "lat": 78.02251256402947,
        "lon": 172.80235380811112,
        "alt_km": 610.9419404923747,
        "timestamp": "2025-12-09T09:46:48.030528+00:00",
        "meta_object_name": "IRIDIUM 33 DEB",
        "meta_object_id": "1997-051CN",
        "meta_epoch": "2025-12-09T03:09:08.418816",
        "meta_mean_motion": 14.83376544,
        "meta_eccentricity": 0.0006064,
        "meta_inclination": 86.3775,
        "meta_ra_of_asc_node": 10.3028,
        "meta_arg_of_pericenter": 19.2898,
        "meta_mean_anomaly": 48.3139,
        "meta_ephemeris_type": 0,
        "meta_classification_type": "U",
        "meta_norad_cat_id": 34079,
        "meta_element_set_no": 999,
        "meta_rev_at_epoch": 88924,
        "meta_bstar": 0.0018399,
        "meta_mean_motion_dot": 0.0001513,
        "meta_mean_motion_ddot": 0,
        "tle_line1": "1 34079U 97051CN  25343.13134744  .00015130  00000+0  18399-2 0  9990",
        "tle_line2": "2 34079  86.3775  10.3028 0006064  19.2898  48.3139 14.83376544889242"
      },
      "geometry": {
        "type": "Point",
        "coordinates": [
          172.80235380811112,
          78.02251256402947
        ]
      }
    },
    {
      "type": "Feature",
      "properties": {
        "norad_id": 34088,
        "name": "IRIDIUM 33 DEB",
        "group": "iridium-33-debris",
        "lat": 80.14074733299468,
        "lon": -169.0799464619135,
        "alt_km": 587.1162124384191,
        "timestamp": "2025-12-09T09:46:48.030539+00:00",
        "meta_object_name": "IRIDIUM 33 DEB",
        "meta_object_id": "1997-051CX",
        "meta_epoch": "2025-12-09T04:49:13.084896",
        "meta_mean_motion": 14.91110401,
        "meta_eccentricity": 0.0005438,
        "meta_inclination": 86.3845,
        "meta_ra_of_asc_node": 32.3496,
        "meta_arg_of_pericenter": 189.6496,
        "meta_mean_anomaly": 240.9859,
        "meta_ephemeris_type": 0,
        "meta_classification_type": "U",
        "meta_norad_cat_id": 34088,
        "meta_element_set_no": 999,
        "meta_rev_at_epoch": 88689,
        "meta_bstar": 0.0029799,
        "meta_mean_motion_dot": 0.00029654,
        "meta_mean_motion_ddot": 0,
        "tle_line1": "1 34088U 97051CX  25343.20084589  .00029654  00000+0  29799-2 0  9991",
        "tle_line2": "2 34088  86.3845  32.3496 0005438 189.6496 240.9859 14.91110401886897"
      },
      "geometry": {
        "type": "Point",
        "coordinates": [
          -169.0799464619135,
          80.14074733299468
        ]
      }
    },
    {
      "type": "Feature",
      "properties": {
        "norad_id": 34091,
        "name": "IRIDIUM 33 DEB",
        "group": "iridium-33-debris",
        "lat": 40.33916341920803,
        "lon": 71.47408019733177,
        "alt_km": 623.9571568228257,
        "timestamp": "2025-12-09T09:46:48.030551+00:00",
        "meta_object_name": "IRIDIUM 33 DEB",
        "meta_object_id": "1997-051DA",
        "meta_epoch": "2025-12-09T04:44:05.518176",
        "meta_mean_motion": 14.81377151,
        "meta_eccentricity": 0.0033284,
        "meta_inclination": 86.3414,
        "meta_ra_of_asc_node": 68.4554,
        "meta_arg_of_pericenter": 305.9603,
        "meta_mean_anomaly": 53.8532,
        "meta_ephemeris_type": 0,
        "meta_classification_type": "U",
        "meta_norad_cat_id": 34091,
        "meta_element_set_no": 999,
        "meta_rev_at_epoch": 87814,
        "meta_bstar": 0.0060294,
        "meta_mean_motion_dot": 0.00047859,
        "meta_mean_motion_ddot": 0,
        "tle_line1": "1 34091U 97051DA  25343.19728609  .00047859  00000+0  60294-2 0  9993",
        "tle_line2": "2 34091  86.3414  68.4554 0033284 305.9603  53.8532 14.81377151878145"
      },
      "geometry": {
        "type": "Point",
        "coordinates": [
          71.47408019733177,
          40.33916341920803
        ]
      }
    },
    {
      "type": "Feature",
      "properties": {
        "norad_id": 34097,
        "name": "IRIDIUM 33 DEB",
        "group": "iridium-33-debris",
        "lat": 49.17102860737175,
        "lon": 178.4668747529949,
        "alt_km": 798.6884343130423,
        "timestamp": "2025-12-09T09:46:48.030561+00:00",
        "meta_object_name": "IRIDIUM 33 DEB",
        "meta_object_id": "1997-051DG",
        "meta_epoch": "2025-12-09T02:28:58.443744",
        "meta_mean_motion": 14.34730397,
        "meta_eccentricity": 0.0083008,
        "meta_inclination": 86.2001,
        "meta_ra_of_asc_node": 3.0124,
        "meta_arg_of_pericenter": 14.0258,
        "meta_mean_anomaly": 346.3214,
        "meta_ephemeris_type": 0,
        "meta_classification_type": "U",
        "meta_norad_cat_id": 34097,
        "meta_element_set_no": 999,
        "meta_rev_at_epoch": 87067,
        "meta_bstar": 0.0016398,
        "meta_mean_motion_dot": 4.847e-05,
        "meta_mean_motion_ddot": 0,
        "tle_line1": "1 34097U 97051DG  25343.10345421  .00004847  00000+0  16398-2 0  9993",
        "tle_line2": "2 34097  86.2001   3.0124 0083008  14.0258 346.3214 14.34730397870673"
      },
      "geometry": {
        "type": "Point",
        "coordinates": [
          178.4668747529949,
          49.17102860737175
        ]
      }
    },
    {
      "type": "Feature",
      "properties": {
        "norad_id": 34145,
        "name": "IRIDIUM 33 DEB",
        "group": "iridium-33-debris",
        "lat": -51.16129139870723,
        "lon": -30.710603902989355,
        "alt_km": 794.0974814452065,
        "timestamp": "2025-12-09T09:46:48.030572+00:00",
        "meta_object_name": "IRIDIUM 33 DEB",
        "meta_object_id": "1997-051DY",
        "meta_epoch": "2025-12-07T23:03:04.751424",
        "meta_mean_motion": 14.42235871,
        "meta_eccentricity": 0.0055559,
        "meta_inclination": 86.2113,
        "meta_ra_of_asc_node": 334.6546,
        "meta_arg_of_pericenter": 109.0134,
        "meta_mean_anomaly": 251.7097,
        "meta_ephemeris_type": 0,
        "meta_classification_type": "U",
        "meta_norad_cat_id": 34145,
        "meta_element_set_no": 999,
        "meta_rev_at_epoch": 87569,
        "meta_bstar": 0.0013920574,
        "meta_mean_motion_dot": 4.693e-05,
        "meta_mean_motion_ddot": 0,
        "tle_line1": "1 34145U 97051DY  25341.96047166  .00004693  00000+0  13921-2 0  9992",
        "tle_line2": "2 34145  86.2113 334.6546 0055559 109.0134 251.7097 14.42235871875691"
      },
      "geometry": {
        "type": "Point",
        "coordinates": [
          -30.710603902989355,
          -51.16129139870723
        ]
      }
    },
    {
      "type": "Feature",
      "properties": {
        "norad_id": 34146,
        "name": "IRIDIUM 33 DEB",
        "group": "iridium-33-debris",
        "lat": -45.63921862038909,
        "lon": 175.08330466990407,
        "alt_km": 717.9732665975944,
        "timestamp": "2025-12-09T09:46:48.030583+00:00",
        "meta_object_name": "IRIDIUM 33 DEB",
        "meta_object_id": "1997-051DZ",
        "meta_epoch": "2025-12-09T00:42:07.992288",
        "meta_mean_motion": 14.49007468,
        "meta_eccentricity": 0.0025206,
        "meta_inclination": 86.2836,
        "meta_ra_of_asc_node": 351.4394,
        "meta_arg_of_pericenter": 234.8472,
        "meta_mean_anomaly": 179.0579,
        "meta_ephemeris_type": 0,
        "meta_classification_type": "U",
        "meta_norad_cat_id": 34146,
        "meta_element_set_no": 999,
        "meta_rev_at_epoch": 88053,
        "meta_bstar": 0.0011766,
        "meta_mean_motion_dot": 4.498e-05,
        "meta_mean_motion_ddot": 0,
        "tle_line1": "1 34146U 97051DZ  25343.02925917  .00004498  00000+0  11766-2 0  9999",
        "tle_line2": "2 34146  86.2836 351.4394 0025206 234.8472 179.0579 14.49007468880532"
      },
      "geometry": {
        "type": "Point",
        "coordinates": [
          175.08330466990407,
          -45.63921862038909
        ]
      }
    },
    {
      "type": "Feature",
      "properties": {
        "norad_id": 34159,
        "name": "IRIDIUM 33 DEB",
        "group": "iridium-33-debris",
        "lat": 66.7670618536322,
        "lon": 58.210608116299774,
        "alt_km": 768.3775312534117,
        "timestamp": "2025-12-09T09:46:48.030594+00:00",
        "meta_object_name": "IRIDIUM 33 DEB",
        "meta_object_id": "1997-051EN",
        "meta_epoch": "2025-12-09T04:27:39.301920",
        "meta_mean_motion": 14.38479228,
        "meta_eccentricity": 0.002602,
        "meta_inclination": 86.3513,
        "meta_ra_of_asc_node": 49.7568,
        "meta_arg_of_pericenter": 300.3641,
        "meta_mean_anomaly": 59.4984,
        "meta_ephemeris_type": 0,
        "meta_classification_type": "U",
        "meta_norad_cat_id": 34159,
        "meta_element_set_no": 999,
        "meta_rev_at_epoch": 87908,
        "meta_bstar": 0.00052184,
        "meta_mean_motion_dot": 1.618e-05,
        "meta_mean_motion_ddot": 0,
        "tle_line1": "1 34159U 97051EN  25343.18587155  .00001618  00000+0  52184-3 0  9999",
        "tle_line2": "2 34159  86.3513  49.7568 0026020 300.3641  59.4984 14.38479228879085"
      },
      "geometry": {
        "type": "Point",
        "coordinates": [
          58.210608116299774,
          66.7670618536322
        ]
      }
    }
  ]
}